{
  "links" : {
    "next" : "https://api.nasa.gov/neo/rest/v1/feed?start_date=2002-12-09&end_date=2002-12-09&detailed=true&api_key=t0TVs3DtDT2H8Oy2Zy8m2eVrNsAVKAexjcZXUckd",
    "prev" : "https://api.nasa.gov/neo/rest/v1/feed?start_date=2002-12-07&end_date=2002-12-07&detailed=true&api_key=t0TVs3DtDT2H8Oy2Zy8m2eVrNsAVKAexjcZXUckd",
    "self" : "https://api.nasa.gov/neo/rest/v1/feed?start_date=2002-12-08&end_date=2002-12-08&detailed=true&api_key=t0TVs3DtDT2H8Oy2Zy8m2eVrNsAVKAexjcZXUckd"
  },
  "element_count" : 2,
  "near_earth_objects" : {
    "2002-12-08" : [ {
      "links" : {
        "self" : "https://api.nasa.gov/neo/rest/v1/neo/2417201?api_key=t0TVs3DtDT2H8Oy2Zy8m2eVrNsAVKAexjcZXUckd"
      },
      "neo_reference_id" : "2417201",
      "name" : "417201 (2005 XM4)",
      "nasa_jpl_url" : "http://ssd.jpl.nasa.gov/sbdb.cgi?sstr=2417201",
      "absolute_magnitude_h" : 19.7,
      "estimated_diameter" : {
        "kilometers" : {
          "estimated_diameter_min" : 0.3051792326,
          "estimated_diameter_max" : 0.6824015094
        },
        "meters" : {
          "estimated_diameter_min" : 305.1792325939,
          "estimated_diameter_max" : 682.4015094011
        },
        "miles" : {
          "estimated_diameter_min" : 0.1896295249,
          "estimated_diameter_max" : 0.4240245083
        },
        "feet" : {
          "estimated_diameter_min" : 1001.2442334633,
          "estimated_diameter_max" : 2238.8501681036
        }
      },
      "is_potentially_hazardous_asteroid" : false,
      "close_approach_data" : [ {
        "close_approach_date" : "2002-12-08",
        "epoch_date_close_approach" : 1039334400000,
        "relative_velocity" : {
          "kilometers_per_second" : "18.7697487495",
          "kilometers_per_hour" : "67571.0954982572",
          "miles_per_hour" : "41986.0509777921"
        },
        "miss_distance" : {
          "astronomical" : "0.4301874093",
          "lunar" : "167.3428955078",
          "kilometers" : "64355120",
          "miles" : "39988416"
        },
        "orbiting_body" : "Earth"
      } ],
      "orbital_data" : {
        "orbit_id" : "49",
        "orbit_determination_date" : "2017-04-06 09:21:19",
        "orbit_uncertainty" : "0",
        "minimum_orbit_intersection" : ".239048",
        "jupiter_tisserand_invariant" : "4.818",
        "epoch_osculation" : "2458000.5",
        "eccentricity" : ".06418999615289134",
        "semi_major_axis" : "1.303828715545802",
        "inclination" : "34.1457559572319",
        "ascending_node_longitude" : "81.8818597573969",
        "orbital_period" : "543.7875240083606",
        "perihelion_distance" : "1.220135955310887",
        "perihelion_argument" : "345.3270357571434",
        "aphelion_distance" : "1.387521475780716",
        "perihelion_time" : "2458066.325810065004",
        "mean_anomaly" : "316.4217813444407",
        "mean_motion" : ".6620232795088272",
        "equinox" : "J2000"
      }
    }, {
      "links" : {
        "self" : "https://api.nasa.gov/neo/rest/v1/neo/3690051?api_key=t0TVs3DtDT2H8Oy2Zy8m2eVrNsAVKAexjcZXUckd"
      },
      "neo_reference_id" : "3690051",
      "name" : "(2014 SM143)",
      "nasa_jpl_url" : "http://ssd.jpl.nasa.gov/sbdb.cgi?sstr=3690051",
      "absolute_magnitude_h" : 20.3,
      "estimated_diameter" : {
        "kilometers" : {
          "estimated_diameter_min" : 0.2315021222,
          "estimated_diameter_max" : 0.5176544822
        },
        "meters" : {
          "estimated_diameter_min" : 231.5021222103,
          "estimated_diameter_max" : 517.6544821978
        },
        "miles" : {
          "estimated_diameter_min" : 0.1438487052,
          "estimated_diameter_max" : 0.3216554833
        },
        "feet" : {
          "estimated_diameter_min" : 759.5214226325,
          "estimated_diameter_max" : 1698.3415313737
        }
      },
      "is_potentially_hazardous_asteroid" : true,
      "close_approach_data" : [ {
        "close_approach_date" : "2002-12-08",
        "epoch_date_close_approach" : 1039334400000,
        "relative_velocity" : {
          "kilometers_per_second" : "12.3305774877",
          "kilometers_per_hour" : "44390.0789557668",
          "miles_per_hour" : "27582.2687822652"
        },
        "miss_distance" : {
          "astronomical" : "0.409076359",
          "lunar" : "159.1307067871",
          "kilometers" : "61196952",
          "miles" : "38026024"
        },
        "orbiting_body" : "Earth"
      } ],
      "orbital_data" : {
        "orbit_id" : "37",
        "orbit_determination_date" : "2017-04-06 08:38:34",
        "orbit_uncertainty" : "2",
        "minimum_orbit_intersection" : ".0052176",
        "jupiter_tisserand_invariant" : "5.111",
        "epoch_osculation" : "2458000.5",
        "eccentricity" : ".4226191786518002",
        "semi_major_axis" : "1.205855733918962",
        "inclination" : "24.21455870601213",
        "ascending_node_longitude" : "28.85461864634535",
        "orbital_period" : "483.6614305799647",
        "perihelion_distance" : ".6962379740775666",
        "perihelion_argument" : "89.58050458934299",
        "aphelion_distance" : "1.715473493760357",
        "perihelion_time" : "2457976.150447000175",
        "mean_anomaly" : "18.12391587525541",
        "mean_motion" : ".7443223239205147",
        "equinox" : "J2000"
      }
    } ]
  }
}